{
  "type": "FeatureCollection",
  "features": [
    {
      "type": "Feature",
      "properties": {
        "norad_id": 30199,
        "name": "FENGYUN 1C DEB",
        "group": "fengyun-1c-debris",
        "lat": -78.58018381312911,
        "lon": 56.52163883146308,
        "alt_km": 724.3481474834416,
        "timestamp": "2025-12-11T20:41:15.355533+00:00",
        "meta_object_name": "FENGYUN 1C DEB",
        "meta_object_id": "1999-025VG",
        "meta_epoch": "2025-12-11T13:25:26.792832",
        "meta_mean_motion": 14.38502484,
        "meta_eccentricity": 0.00777697,
        "meta_inclination": 98.3859,
        "meta_ra_of_asc_node": 9.3169,
        "meta_arg_of_pericenter": 312.2555,
        "meta_mean_anomaly": 199.6496,
        "meta_ephemeris_type": 0,
        "meta_classification_type": "U",
        "meta_norad_cat_id": 30199,
        "meta_element_set_no": 999,
        "meta_rev_at_epoch": 98393,
        "meta_bstar": 0.0014940541,
        "meta_mean_motion_dot": 4.686e-05,
        "meta_mean_motion_ddot": 0,
        "tle_line1": "1 30199U 99025VG  25345.55933788  .00004686  00000+0  14941-2 0  9998",
        "tle_line2": "2 30199  98.3859   9.3169 0077769 312.2555 199.6496 14.38502484983938"
      },
      "geometry": {
        "type": "Point",
        "coordinates": [
          56.52163883146308,
          -78.58018381312911
        ]
      }
    },
    {
      "type": "Feature",
      "properties": {
        "norad_id": 30200,
        "name": "FENGYUN 1C DEB",
        "group": "fengyun-1c-debris",
        "lat": -57.0154265212398,
        "lon": -165.09511281037902,
        "alt_km": 924.2287991757412,
        "timestamp": "2025-12-11T20:41:15.355543+00:00",
        "meta_object_name": "FENGYUN 1C DEB",
        "meta_object_id": "1999-025VH",
        "meta_epoch": "2025-12-11T12:31:25.394880",
        "meta_mean_motion": 14.22275382,
        "meta_eccentricity": 0.01475731,
        "meta_inclination": 99.1129,
        "meta_ra_of_asc_node": 180.2352,
        "meta_arg_of_pericenter": 102.7341,
        "meta_mean_anomaly": 259.0375,
        "meta_ephemeris_type": 0,
        "meta_classification_type": "U",
        "meta_norad_cat_id": 30200,
        "meta_element_set_no": 999,
        "meta_rev_at_epoch": 97965,
        "meta_bstar": 0.00022093827,
        "meta_mean_motion_dot": 5.02e-06,
        "meta_mean_motion_ddot": 0,
        "tle_line1": "1 30200U 99025VH  25345.52182170  .00000502  00000+0  22094-3 0  9991",
        "tle_line2": "2 30200  99.1129 180.2352 0147573 102.7341 259.0375 14.22275382979657"
      },
      "geometry": {
        "type": "Point",
        "coordinates": [
          -165.09511281037902,
          -57.0154265212398
        ]
      }
    },
    {
      "type": "Feature",
      "properties": {
        "norad_id": 30201,
        "name": "FENGYUN 1C DEB",
        "group": "fengyun-1c-debris",
        "lat": -30.20763016438308,
        "lon": -65.51727034386431,
        "alt_km": 826.541312101228,
        "timestamp": "2025-12-11T20:41:15.355553+00:00",
        "meta_object_name": "FENGYUN 1C DEB",
        "meta_object_id": "1999-025VJ",
        "meta_epoch": "2025-12-11T14:38:08.885184",
        "meta_mean_motion": 14.22938158,
        "meta_eccentricity": 0.00287128,
        "meta_inclination": 99.4011,
        "meta_ra_of_asc_node": 119.7488,
        "meta_arg_of_pericenter": 316.0778,
        "meta_mean_anomaly": 43.8116,
        "meta_ephemeris_type": 0,
        "meta_classification_type": "U",
        "meta_norad_cat_id": 30201,
        "meta_element_set_no": 999,
        "meta_rev_at_epoch": 97811,
        "meta_bstar": 0.00068706758,
        "meta_mean_motion_dot": 1.502e-05,
        "meta_mean_motion_ddot": 0,
        "tle_line1": "1 30201U 99025VJ  25345.60982506  .00001502  00000+0  68707-3 0  9994",
        "tle_line2": "2 30201  99.4011 119.7488 0028712 316.0778  43.8116 14.22938158978114"
      },
      "geometry": {
        "type": "Point",
        "coordinates": [
          -65.51727034386431,
          -30.20763016438308
        ]
      }
    },
    {
      "type": "Feature",
      "properties": {
        "norad_id": 30202,
        "name": "FENGYUN 1C DEB",
        "group": "fengyun-1c-debris",
        "lat": 78.57193493475643,
        "lon": -48.09759863181082,
        "alt_km": 688.23894596638,
        "timestamp": "2025-12-11T20:41:15.355563+00:00",
        "meta_object_name": "FENGYUN 1C DEB",
        "meta_object_id": "1999-025VK",
        "meta_epoch": "2025-12-11T05:21:43.693632",
        "meta_mean_motion": 14.52323789,
        "meta_eccentricity": 0.0038965,
        "meta_inclination": 98.6397,
        "meta_ra_of_asc_node": 82.4681,
        "meta_arg_of_pericenter": 63.4772,
        "meta_mean_anomaly": 297.041,
        "meta_ephemeris_type": 0,
        "meta_classification_type": "U",
        "meta_norad_cat_id": 30202,
        "meta_element_set_no": 999,
        "meta_rev_at_epoch": 98267,
        "meta_bstar": 0.0035682574,
        "meta_mean_motion_dot": 0.00014639,
        "meta_mean_motion_ddot": 0,
        "tle_line1": "1 30202U 99025VK  25345.22342238  .00014639  00000+0  35683-2 0  9996",
        "tle_line2": "2 30202  98.6397  82.4681 0038965  63.4772 297.0410 14.52323789982679"
      },
      "geometry": {
        "type": "Point",
        "coordinates": [
          -48.09759863181082,
          78.57193493475643
        ]
      }
    },
    {
      "type": "Feature",
      "properties": {
        "norad_id": 30205,
        "name": "FENGYUN 1C DEB",
        "group": "fengyun-1c-debris",
        "lat": -6.567981421314182,
        "lon": 98.27128903568145,
        "alt_km": 1026.6234469378414,
        "timestamp": "2025-12-11T20:41:15.355573+00:00",
        "meta_object_name": "FENGYUN 1C DEB",
        "meta_object_id": "1999-025VN",
        "meta_epoch": "2025-12-11T14:07:53.184000",
        "meta_mean_motion": 13.88040542,
        "meta_eccentricity": 0.01209644,
        "meta_inclination": 98.9967,
        "meta_ra_of_asc_node": 96.9628,
        "meta_arg_of_pericenter": 182.9121,
        "meta_mean_anomaly": 246.0491,
        "meta_ephemeris_type": 0,
        "meta_classification_type": "U",
        "meta_norad_cat_id": 30205,
        "meta_element_set_no": 999,
        "meta_rev_at_epoch": 95622,
        "meta_bstar": 0.00055739048,
        "meta_mean_motion_dot": 6.62e-06,
        "meta_mean_motion_ddot": 0,
        "tle_line1": "1 30205U 99025VN  25345.58881000  .00000662  00000+0  55739-3 0  9999",
        "tle_line2": "2 30205  98.9967  96.9628 0120964 182.9121 246.0491 13.88040542956221"
      },
      "geometry": {
        "type": "Point",
        "coordinates": [
          98.27128903568145,
          -6.567981421314182
        ]
      }
    },
    {
      "type": "Feature",
      "properties": {
        "norad_id": 30206,
        "name": "FENGYUN 1C DEB",
        "group": "fengyun-1c-debris",
        "lat": 81.75135898303695,
        "lon": -107.87781192317124,
        "alt_km": 655.3062300836591,
        "timestamp": "2025-12-11T20:41:15.355582+00:00",
        "meta_object_name": "FENGYUN 1C DEB",
        "meta_object_id": "1999-025VP",
        "meta_epoch": "2025-12-11T11:59:49.846272",
        "meta_mean_motion": 14.49146588,
        "meta_eccentricity": 0.0146059,
        "meta_inclination": 98.232,
        "meta_ra_of_asc_node": 344.7922,
        "meta_arg_of_pericenter": 40.1202,
        "meta_mean_anomaly": 321.0669,
        "meta_ephemeris_type": 0,
        "meta_classification_type": "U",
        "meta_norad_cat_id": 30206,
        "meta_element_set_no": 999,
        "meta_rev_at_epoch": 99383,
        "meta_bstar": 0.00079808823,
        "meta_mean_motion_dot": 3.43e-05,
        "meta_mean_motion_ddot": 0,
        "tle_line1": "1 30206U 99025VP  25345.49988248  .00003430  00000+0  79809-3 0  9992",
        "tle_line2": "2 30206  98.2320 344.7922 0146059  40.1202 321.0669 14.49146588993831"
      },
      "geometry": {
        "type": "Point",
        "coordinates": [
          -107.87781192317124,
          81.75135898303695
        ]
      }
    },
    {
      "type": "Feature",
      "properties": {
        "norad_id": 30207,
        "name": "FENGYUN 1C DEB",
        "group": "fengyun-1c-debris",
        "lat": -75.6304837584123,
        "lon": 132.72468801732427,
        "alt_km": 1096.5790019984688,
        "timestamp": "2025-12-11T20:41:15.355592+00:00",
        "meta_object_name": "FENGYUN 1C DEB",
        "meta_object_id": "1999-025VQ",
        "meta_epoch": "2025-12-11T07:28:15.220128",
        "meta_mean_motion": 13.79135338,
        "meta_eccentricity": 0.02604975,
        "meta_inclination": 98.574,
        "meta_ra_of_asc_node": 96.1482,
        "meta_arg_of_pericenter": 152.2164,
        "meta_mean_anomaly": 274.4385,
        "meta_ephemeris_type": 0,
        "meta_classification_type": "U",
        "meta_norad_cat_id": 30207,
        "meta_element_set_no": 999,
        "meta_rev_at_epoch": 95043,
        "meta_bstar": 0.00046569457,
        "meta_mean_motion_dot": 5.78e-06,
        "meta_mean_motion_ddot": 0,
        "tle_line1": "1 30207U 99025VQ  25345.31128727  .00000578  00000+0  46569-3 0  9999",
        "tle_line2": "2 30207  98.5740  96.1482 0260497 152.2164 274.4385 13.79135338950433"
      },
      "geometry": {
        "type": "Point",
        "coordinates": [
          132.72468801732427,
          -75.6304837584123
        ]
      }
    }
  ]
}